IRIDIUM 106             
1 41917U 17003A   23317.54599626  .00000142  00000+0  43696-4 0  9993
2 41917  86.3941 124.1701 0002228  95.6142 264.5308 14.34216923357527
IRIDIUM 103             
1 41918U 17003B   23317.53331593  .00000153  00000+0  47689-4 0  9998
2 41918  86.3940 124.0779 0001792  98.1781 261.9618 14.34216474357541
IRIDIUM 109             
1 41919U 17003C   23317.53966024  .00000136  00000+0  41605-4 0  9995
2 41919  86.3941 124.1191 0001899  85.1927 274.9485 14.34219418357512
IRIDIUM 102             
1 41920U 17003D   23317.50795546  .00000103  00000+0  29715-4 0  9995
2 41920  86.3940 124.0761 0002044  84.9682 275.1747 14.34218127357591
IRIDIUM 105             
1 41921U 17003E   23317.47859979  .00000519  00000+0  17819-3 0  9995
2 41921  86.3947  92.4944 0002002  95.0613 265.0812 14.34229755359447
IRIDIUM 104             
1 41922U 17003F   23317.52062727  .00000141  00000+0  43275-4 0  9996
2 41922  86.3941 124.0989 0001805  91.3330 268.8072 14.34217739357589
IRIDIUM 108             
1 41924U 17003H   23317.41571900  .00000017  00000+0 -10410-5 0  9993
2 41924  86.3943  92.4594 0002155  98.8621 261.2819 14.34211680359405
